QIANFAN-225             
1 69854U 26155G   26198.26233429  .00000051  00000+0  16579-4 0  9995
2 69854  89.0064  60.7120 0029142 217.0121 142.9061 14.22450532  1674
QIANFAN-226             
1 69855U 26155H   26198.04959745 -.02062008  00000+0 -10507+1 0  9993
2 69855  89.0057  60.7364 0032994 217.0924 142.7986 14.19697888  1641
QIANFAN-227             
1 69856U 26155J   26197.97628532 -.02035804  00000+0 -99223+0 0  9997
2 69856  89.0058  60.7437 0026882 217.6767 142.2542 14.22103173  1639
QIANFAN-228             
1 69857U 26155K   26197.97645033  .00000202  00000+0  77165-4 0  9999
2 69857  89.0065  60.7434 0030569 217.3850 142.5218 14.26684449  1639
QIANFAN-229             
1 69858U 26155L   26198.25694661  .00000045  00000+0  12699-4 0  9999
2 69858  89.0064  60.7114 0030630 216.1740 143.7382 14.26689335  1676
QIANFAN-230             
1 69859U 26155M   26198.05954599  .00000107  00000+0  41755-4 0  9991
2 69859  89.0062  60.7370 0029214 217.5734 142.3417 14.21842074  1640
QIANFAN-231             
1 69860U 26155N   26198.19002081  .00000230  00000+0  89649-4 0  9999
2 69860  89.0066  60.7200 0030693 215.7610 144.1529 14.26096510  1661
QIANFAN-232             
1 69861U 26155P   26198.25683596  .00000208  00000+0  79628-4 0  9994
2 69861  89.0064  60.7112 0030507 216.7976 143.1124 14.26736241  1675
QIANFAN-233             
1 69862U 26155Q   26198.25672034  .00000060  00000+0  18912-4 0  9995
2 69862  89.0065  60.7111 0030430 216.6064 143.3051 14.26751957  1670
QIANFAN-234             
1 69863U 26155R   26198.25666680  .00000201  00000+0  76539-4 0  9992
2 69863  89.0065  60.7114 0030426 216.6590 143.2522 14.26758713  1672
QIANFAN-235             
1 69864U 26155S   26198.25661882  .00000182  00000+0  68763-4 0  9990
2 69864  89.0065  60.7113 0030381 216.6702 143.2413 14.26764608  1676
QIANFAN-236             
1 69865U 26155T   26198.25657739  .00000223  00000+0  85612-4 0  9995
2 69865  89.0065  60.7114 0030352 216.7079 143.2037 14.26769846  1675
QIANFAN-237             
1 69866U 26155U   26198.25650849  .00000213  00000+0  81570-4 0  9999
2 69866  89.0065  60.7114 0030326 216.7337 143.1779 14.26778084  1669
QIANFAN-238             
1 69867U 26155V   26198.25644839  .00000223  00000+0  85683-4 0  9992
2 69867  89.0065  60.7113 0030304 216.7808 143.1308 14.26785542  1674
